{
  "type": "FeatureCollection",
  "features": [
    {
      "type": "Feature",
      "properties": {
        "norad_id": 35109,
        "name": "FENGYUN 1C DEB",
        "group": "fengyun-1c-debris",
        "lat": -42.939648890577985,
        "lon": -19.201446397857072,
        "alt_km": 822.7896220288067,
        "timestamp": "2025-12-09T07:41:33.496167+00:00",
        "meta_object_name": "FENGYUN 1C DEB",
        "meta_object_id": "1999-025DKM",
        "meta_epoch": "2025-12-08T04:51:14.194368",
        "meta_mean_motion": 14.20865245,
        "meta_eccentricity": 0.01536181,
        "meta_inclination": 98.6162,
        "meta_ra_of_asc_node": 331.5968,
        "meta_arg_of_pericenter": 47.4251,
        "meta_mean_anomaly": 313.9771,
        "meta_ephemeris_type": 0,
        "meta_classification_type": "U",
        "meta_norad_cat_id": 35109,
        "meta_element_set_no": 999,
        "meta_rev_at_epoch": 64095,
        "meta_bstar": 0.00053660698,
        "meta_mean_motion_dot": 1.265e-05,
        "meta_mean_motion_ddot": 0,
        "tle_line1": "1 35109U 99025DKM 25342.20224762  .00001265  00000+0  53661-3 0  9991",
        "tle_line2": "2 35109  98.6162 331.5968 0153618  47.4251 313.9771 14.20865245640956"
      },
      "geometry": {
        "type": "Point",
        "coordinates": [
          -19.201446397857072,
          -42.939648890577985
        ]
      }
    },
    {
      "type": "Feature",
      "properties": {
        "norad_id": 35111,
        "name": "FENGYUN 1C DEB",
        "group": "fengyun-1c-debris",
        "lat": -65.56784731178769,
        "lon": 83.33690650383699,
        "alt_km": 856.0427416748262,
        "timestamp": "2025-12-09T07:41:33.496177+00:00",
        "meta_object_name": "FENGYUN 1C DEB",
        "meta_object_id": "1999-025DKP",
        "meta_epoch": "2025-12-07T11:45:43.563456",
        "meta_mean_motion": 14.10954545,
        "meta_eccentricity": 0.00216077,
        "meta_inclination": 99.4664,
        "meta_ra_of_asc_node": 59.8627,
        "meta_arg_of_pericenter": 235.1352,
        "meta_mean_anomaly": 124.7786,
        "meta_ephemeris_type": 0,
        "meta_classification_type": "U",
        "meta_norad_cat_id": 35111,
        "meta_element_set_no": 999,
        "meta_rev_at_epoch": 64070,
        "meta_bstar": 0.00078112566,
        "meta_mean_motion_dot": 1.356e-05,
        "meta_mean_motion_ddot": 0,
        "tle_line1": "1 35111U 99025DKP 25341.49008754  .00001356  00000+0  78113-3 0  9995",
        "tle_line2": "2 35111  99.4664  59.8627 0021607 235.1352 124.7786 14.10954545640705"
      },
      "geometry": {
        "type": "Point",
        "coordinates": [
          83.33690650383699,
          -65.56784731178769
        ]
      }
    },
    {
      "type": "Feature",
      "properties": {
        "norad_id": 35116,
        "name": "FENGYUN 1C DEB",
        "group": "fengyun-1c-debris",
        "lat": 3.0684179585363727,
        "lon": 28.86254320615252,
        "alt_km": 786.5887228274651,
        "timestamp": "2025-12-09T07:41:33.496187+00:00",
        "meta_object_name": "FENGYUN 1C DEB",
        "meta_object_id": "1999-025DKU",
        "meta_epoch": "2025-12-08T09:46:18.761376",
        "meta_mean_motion": 14.25045631,
        "meta_eccentricity": 0.00589147,
        "meta_inclination": 98.6612,
        "meta_ra_of_asc_node": 28.4294,
        "meta_arg_of_pericenter": 61.2315,
        "meta_mean_anomaly": 299.4765,
        "meta_ephemeris_type": 0,
        "meta_classification_type": "U",
        "meta_norad_cat_id": 35116,
        "meta_element_set_no": 999,
        "meta_rev_at_epoch": 59898,
        "meta_bstar": 0.001608608,
        "meta_mean_motion_dot": 3.795e-05,
        "meta_mean_motion_ddot": 0,
        "tle_line1": "1 35116U 99025DKU 25342.40716159  .00003795  00000+0  16086-2 0  9996",
        "tle_line2": "2 35116  98.6612  28.4294 0058914  61.2315 299.4765 14.25045631598986"
      },
      "geometry": {
        "type": "Point",
        "coordinates": [
          28.86254320615252,
          3.0684179585363727
        ]
      }
    },
    {
      "type": "Feature",
      "properties": {
        "norad_id": 35121,
        "name": "FENGYUN 1C DEB",
        "group": "fengyun-1c-debris",
        "lat": 70.92526812344224,
        "lon": -178.12189072773415,
        "alt_km": 774.3237290394982,
        "timestamp": "2025-12-09T07:41:33.496197+00:00",
        "meta_object_name": "FENGYUN 1C DEB",
        "meta_object_id": "1999-025DKZ",
        "meta_epoch": "2025-11-23T20:23:41.984736",
        "meta_mean_motion": 14.04733583,
        "meta_eccentricity": 0.0157971,
        "meta_inclination": 98.3025,
        "meta_ra_of_asc_node": 192.694,
        "meta_arg_of_pericenter": 150.2058,
        "meta_mean_anomaly": 210.8223,
        "meta_ephemeris_type": 0,
        "meta_classification_type": "U",
        "meta_norad_cat_id": 35121,
        "meta_element_set_no": 999,
        "meta_rev_at_epoch": 60826,
        "meta_bstar": 0.00039097454,
        "meta_mean_motion_dot": 6.63e-06,
        "meta_mean_motion_ddot": 0,
        "tle_line1": "1 35121U 99025DKZ 25327.84979149  .00000663  00000+0  39097-3 0  9992",
        "tle_line2": "2 35121  98.3025 192.6940 0157971 150.2058 210.8223 14.04733583608261"
      },
      "geometry": {
        "type": "Point",
        "coordinates": [
          -178.12189072773415,
          70.92526812344224
        ]
      }
    },
    {
      "type": "Feature",
      "properties": {
        "norad_id": 35122,
        "name": "FENGYUN 1C DEB",
        "group": "fengyun-1c-debris",
        "lat": -58.816005506089056,
        "lon": 167.22899979202316,
        "alt_km": 846.9109109027031,
        "timestamp": "2025-12-09T07:41:33.496207+00:00",
        "meta_object_name": "FENGYUN 1C DEB",
        "meta_object_id": "1999-025DLA",
        "meta_epoch": "2025-12-08T18:40:35.201280",
        "meta_mean_motion": 14.14118266,
        "meta_eccentricity": 0.00251505,
        "meta_inclination": 98.6722,
        "meta_ra_of_asc_node": 1.3085,
        "meta_arg_of_pericenter": 168.8347,
        "meta_mean_anomaly": 191.339,
        "meta_ephemeris_type": 0,
        "meta_classification_type": "U",
        "meta_norad_cat_id": 35122,
        "meta_element_set_no": 999,
        "meta_rev_at_epoch": 63811,
        "meta_bstar": 0.00051682639,
        "meta_mean_motion_dot": 9.44e-06,
        "meta_mean_motion_ddot": 0,
        "tle_line1": "1 35122U 99025DLA 25342.77818520  .00000944  00000+0  51683-3 0  9994",
        "tle_line2": "2 35122  98.6722   1.3085 0025150 168.8347 191.3390 14.14118266638115"
      },
      "geometry": {
        "type": "Point",
        "coordinates": [
          167.22899979202316,
          -58.816005506089056
        ]
      }
    },
    {
      "type": "Feature",
      "properties": {
        "norad_id": 35123,
        "name": "FENGYUN 1C DEB",
        "group": "fengyun-1c-debris",
        "lat": -80.86767741702764,
        "lon": -106.05643000868213,
        "alt_km": 854.0007849880276,
        "timestamp": "2025-12-09T07:41:33.496218+00:00",
        "meta_object_name": "FENGYUN 1C DEB",
        "meta_object_id": "1999-025DLB",
        "meta_epoch": "2025-12-08T18:37:37.109280",
        "meta_mean_motion": 14.24202991,
        "meta_eccentricity": 0.00495513,
        "meta_inclination": 99.1215,
        "meta_ra_of_asc_node": 165.3075,
        "meta_arg_of_pericenter": 87.3864,
        "meta_mean_anomaly": 273.2984,
        "meta_ephemeris_type": 0,
        "meta_classification_type": "U",
        "meta_norad_cat_id": 35123,
        "meta_element_set_no": 999,
        "meta_rev_at_epoch": 61017,
        "meta_bstar": 0.00099768777,
        "meta_mean_motion_dot": 2.282e-05,
        "meta_mean_motion_ddot": 0,
        "tle_line1": "1 35123U 99025DLB 25342.77612395  .00002282  00000+0  99769-3 0  9991",
        "tle_line2": "2 35123  99.1215 165.3075 0049551  87.3864 273.2984 14.24202991610174"
      },
      "geometry": {
        "type": "Point",
        "coordinates": [
          -106.05643000868213,
          -80.86767741702764
        ]
      }
    },
    {
      "type": "Feature",
      "properties": {
        "norad_id": 35125,
        "name": "FENGYUN 1C DEB",
        "group": "fengyun-1c-debris",
        "lat": -62.88439124842359,
        "lon": 158.15082111688838,
        "alt_km": 770.3067397804971,
        "timestamp": "2025-12-09T07:41:33.496241+00:00",
        "meta_object_name": "FENGYUN 1C DEB",
        "meta_object_id": "1999-025DLD",
        "meta_epoch": "2025-12-08T07:05:36.118752",
        "meta_mean_motion": 14.33084151,
        "meta_eccentricity": 0.00521413,
        "meta_inclination": 98.2165,
        "meta_ra_of_asc_node": 353.5679,
        "meta_arg_of_pericenter": 308.0323,
        "meta_mean_anomaly": 51.6162,
        "meta_ephemeris_type": 0,
        "meta_classification_type": "U",
        "meta_norad_cat_id": 35125,
        "meta_element_set_no": 999,
        "meta_rev_at_epoch": 31218,
        "meta_bstar": 0.0020544677,
        "meta_mean_motion_dot": 5.68e-05,
        "meta_mean_motion_ddot": 0,
        "tle_line1": "1 35125U 99025DLD 25342.29555693  .00005680  00000+0  20545-2 0  9997",
        "tle_line2": "2 35125  98.2165 353.5679 0052141 308.0323  51.6162 14.33084151312185"
      },
      "geometry": {
        "type": "Point",
        "coordinates": [
          158.15082111688838,
          -62.88439124842359
        ]
      }
    }
  ]
}